line1,line2,validFromUtcTime
1 00000U 00000E   26001.00000000  .00000000  00000-0  27772-4 0    01,2 00000  88.8600  75.3324 0010022 270.2147 262.3242 13.55311803    05,2026-01-01T00:00:00Z
1 00000U 00000E   26002.00000000  .00000000  00000-0  27772-4 0    02,2 00000  88.8600  75.2165 0010022 267.3049 101.4451 13.55311841    02,2026-01-02T00:00:00Z
